{"type": "FeatureCollection", "features": [ {"type": "Feature", "properties": {"norad_id": 39122, "name": "EUTELSAT 117 WEST A", "group": "eutelsat", "lat": -0.019829958807224785, "lon": 177.70659928627563, "alt_km": 35783.81374937315, "timestamp": "2025-12-06T14:35:36.798717+00:00", "meta": {"OBJECT_NAME": "EUTELSAT 117 WEST A", "OBJECT_ID": "2013-012A", "EPOCH": "2025-12-06T07:36:40.758624", "MEAN_MOTION": 1.00269846, "ECCENTRICITY": 0.00031684, "INCLINATION": 0.0154, "RA_OF_ASC_NODE": 324.5048, "ARG_OF_PERICENTER": 291.1491, "MEAN_ANOMALY": 177.0817, "EPHEMERIS_TYPE": 0, "CLASSIFICATION_TYPE": "U", "NORAD_CAT_ID": 39122, "ELEMENT_SET_NO": 999, "REV_AT_EPOCH": 4649, "BSTAR": 0, "MEAN_MOTION_DOT": -5e-08, "MEAN_MOTION_DDOT": 0}, "tle": {"line1": "1 39122U 13012A   25340.31713841 -.00000005  00000+0  00000+0 0  9990", "line2": "2 39122   0.0154 324.5048 0003168 291.1491 177.0817  1.00269846 46490"}}, "geometry": {"type": "Point", "coordinates": [177.70659928627563, -0.019829958807224785]}}, {"type": "Feature", "properties": {"norad_id": 39163, "name": "EUTELSAT 7B", "group": "eutelsat", "lat": -0.07739100767593256, "lon": -58.48468346672586, "alt_km": 35768.143357087385, "timestamp": "2025-12-06T14:35:36.798729+00:00", "meta": {"OBJECT_NAME": "EUTELSAT 7B", "OBJECT_ID": "2013-022A", "EPOCH": "2025-12-06T06:08:38.706720", "MEAN_MOTION": 1.00270334, "ECCENTRICITY": 0.00044275, "INCLINATION": 0.0688, "RA_OF_ASC_NODE": 6.9802, "ARG_OF_PERICENTER": 305.0312, "MEAN_ANOMALY": 222.437, "EPHEMERIS_TYPE": 0, "CLASSIFICATION_TYPE": "U", "NORAD_CAT_ID": 39163, "ELEMENT_SET_NO": 999, "REV_AT_EPOCH": 4602, "BSTAR": 0, "MEAN_MOTION_DOT": 5.6e-07, "MEAN_MOTION_DDOT": 0}, "tle": {"line1": "1 39163U 13022A   25340.25600355  .00000056  00000+0  00000+0 0  9999", "line2": "2 39163   0.0688   6.9802 0004427 305.0312 222.4370  1.00270334 46024"}}, "geometry": {"type": "Point", "coordinates": [-58.48468346672586, -0.07739100767593256]}}, {"type": "Feature", "properties": {"norad_id": 39612, "name": "EXPRESS-AT1", "group": "eutelsat", "lat": 0.021897346640043197, "lon": -9.463738701790708, "alt_km": 35788.612127839224, "timestamp": "2025-12-06T14:35:36.798741+00:00", "meta": {"OBJECT_NAME": "EXPRESS-AT1", "OBJECT_ID": "2014-010A", "EPOCH": "2025-12-06T05:22:14.745792", "MEAN_MOTION": 1.00271139, "ECCENTRICITY": 5.724e-05, "INCLINATION": 0.0163, "RA_OF_ASC_NODE": 299.5205, "ARG_OF_PERICENTER": 237.3702, "MEAN_ANOMALY": 34.9365, "EPHEMERIS_TYPE": 0, "CLASSIFICATION_TYPE": "U", "NORAD_CAT_ID": 39612, "ELEMENT_SET_NO": 999, "REV_AT_EPOCH": 4288, "BSTAR": 0, "MEAN_MOTION_DOT": 8.7e-07, "MEAN_MOTION_DDOT": 0}, "tle": {"line1": "1 39612U 14010A   25340.22378178  .00000087  00000+0  00000+0 0  9992", "line2": "2 39612   0.0163 299.5205 0000572 237.3702  34.9365  1.00271139 42889"}}, "geometry": {"type": "Point", "coordinates": [-9.463738701790708, 0.021897346640043197]}}, {"type": "Feature", "properties": {"norad_id": 39613, "name": "EXPRESS-AT2", "group": "eutelsat", "lat": 0.04453722202497292, "lon": 74.39314227947453, "alt_km": 35791.949349177245, "timestamp": "2025-12-06T14:35:36.798758+00:00", "meta": {"OBJECT_NAME": "EXPRESS-AT2", "OBJECT_ID": "2014-010B", "EPOCH": "2025-12-06T00:21:38.642976", "MEAN_MOTION": 1.00269562, "ECCENTRICITY": 0.00014085, "INCLINATION": 0.0194, "RA_OF_ASC_NODE": 344.2604, "ARG_OF_PERICENTER": 299.8343, "MEAN_ANOMALY": 296.2301, "EPHEMERIS_TYPE": 0, "CLASSIFICATION_TYPE": "U", "NORAD_CAT_ID": 39613, "ELEMENT_SET_NO": 999, "REV_AT_EPOCH": 4256, "BSTAR": 0, "MEAN_MOTION_DOT": 0, "MEAN_MOTION_DDOT": 0}, "tle": {"line1": "1 39613U 14010B   25340.01503059  .00000000  00000+0  00000+0 0  9993", "line2": "2 39613   0.0194 344.2604 0001408 299.8343 296.2301  1.00269562 42563"}}, "geometry": {"type": "Point", "coordinates": [74.39314227947453, 0.04453722202497292]}}, {"type": "Feature", "properties": {"norad_id": 39773, "name": "EUTELSAT 3B", "group": "eutelsat", "lat": -0.07739406594249994, "lon": -62.31562474216301, "alt_km": 35778.156477120356, "timestamp": "2025-12-06T14:35:36.798771+00:00", "meta": {"OBJECT_NAME": "EUTELSAT 3B", "OBJECT_ID": "2014-030A", "EPOCH": "2025-12-06T06:08:38.706720", "MEAN_MOTION": 1.00271536, "ECCENTRICITY": 0.00047379, "INCLINATION": 0.0647, "RA_OF_ASC_NODE": 9.5277, "ARG_OF_PERICENTER": 221.377, "MEAN_ANOMALY": 299.6523, "EPHEMERIS_TYPE": 0, "CLASSIFICATION_TYPE": "U", "NORAD_CAT_ID": 39773, "ELEMENT_SET_NO": 999, "REV_AT_EPOCH": 4213, "BSTAR": 0, "MEAN_MOTION_DOT": 2.8e-07, "MEAN_MOTION_DDOT": 0}, "tle": {"line1": "1 39773U 14030A   25340.25600355  .00000028  00000+0  00000+0 0  9995", "line2": "2 39773   0.0647   9.5277 0004737 221.3770 299.6523  1.00271536 42132"}}, "geometry": {"type": "Point", "coordinates": [-62.31562474216301, -0.07739406594249994]}}, {"type": "Feature", "properties": {"norad_id": 40425, "name": "EUTELSAT 115 WEST B", "group": "eutelsat", "lat": 0.0045888677244286386, "lon": 179.670318318185, "alt_km": 35786.67937893098, "timestamp": "2025-12-06T14:35:36.798782+00:00", "meta": {"OBJECT_NAME": "EUTELSAT 115 WEST B", "OBJECT_ID": "2015-010B", "EPOCH": "2025-12-05T21:42:40.706784", "MEAN_MOTION": 1.00271075, "ECCENTRICITY": 4.108e-05, "INCLINATION": 0.0148, "RA_OF_ASC_NODE": 147.2879, "ARG_OF_PERICENTER": 288.3386, "MEAN_ANOMALY": 210.1252, "EPHEMERIS_TYPE": 0, "CLASSIFICATION_TYPE": "U", "NORAD_CAT_ID": 40425, "ELEMENT_SET_NO": 999, "REV_AT_EPOCH": 3945, "BSTAR": 0, "MEAN_MOTION_DOT": -1.6e-07, "MEAN_MOTION_DDOT": 0}, "tle": {"line1": "1 40425U 15010B   25339.90463781 -.00000016  00000+0  00000+0 0  9998", "line2": "2 40425   0.0148 147.2879 0000410 288.3386 210.1252  1.00271075 39458"}}, "geometry": {"type": "Point", "coordinates": [179.670318318185, 0.0045888677244286386]}}, {"type": "Feature", "properties": {"norad_id": 40875, "name": "EUTELSAT 8 WEST B", "group": "eutelsat", "lat": -0.07923385346935136, "lon": -73.42733385169267, "alt_km": 35770.93530724314, "timestamp": "2025-12-06T14:35:36.798794+00:00", "meta": {"OBJECT_NAME": "EUTELSAT 8 WEST B", "OBJECT_ID": "2015-039B", "EPOCH": "2025-12-06T06:46:44.152608", "MEAN_MOTION": 1.00271561, "ECCENTRICITY": 0.00041284, "INCLINATION": 0.0647, "RA_OF_ASC_NODE": 353.5592, "ARG_OF_PERICENTER": 263.443, "MEAN_ANOMALY": 272.0186, "EPHEMERIS_TYPE": 0, "CLASSIFICATION_TYPE": "U", "NORAD_CAT_ID": 40875, "ELEMENT_SET_NO": 999, "REV_AT_EPOCH": 3772, "BSTAR": 0, "MEAN_MOTION_DOT": -5.8e-07, "MEAN_MOTION_DDOT": 0}, "tle": {"line1": "1 40875U 15039B   25340.28245547 -.00000058  00000+0  00000+0 0  9995", "line2": "2 40875   0.0647 353.5592 0004128 263.4430 272.0186  1.00271561 37720"}}, "geometry": {"type": "Point", "coordinates": [-73.42733385169267, -0.07923385346935136]}}, {"type": "Feature", "properties": {"norad_id": 41310, "name": "EUTELSAT 9B", "group": "eutelsat", "lat": -0.0649304397426753, "lon": -56.433242421808885, "alt_km": 35768.80863684609, "timestamp": "2025-12-06T14:35:36.798806+00:00", "meta": {"OBJECT_NAME": "EUTELSAT 9B", "OBJECT_ID": "2016-005A", "EPOCH": "2025-12-06T06:51:36.187200", "MEAN_MOTION": 1.00272299, "ECCENTRICITY": 0.00050189, "INCLINATION": 0.0735, "RA_OF_ASC_NODE": 75.7395, "ARG_OF_PERICENTER": 191.5268, "MEAN_ANOMALY": 279.9567, "EPHEMERIS_TYPE": 0, "CLASSIFICATION_TYPE": "U", "NORAD_CAT_ID": 41310, "ELEMENT_SET_NO": 999, "REV_AT_EPOCH": 3618, "BSTAR": 0, "MEAN_MOTION_DOT": 7e-07, "MEAN_MOTION_DDOT": 0}, "tle": {"line1": "1 41310U 16005A   25340.28583550  .00000070  00000+0  00000+0 0  9996", "line2": "2 41310   0.0735  75.7395 0005018 191.5268 279.9567  1.00272299 36183"}}, "geometry": {"type": "Point", "coordinates": [-56.433242421808885, -0.0649304397426753]}}, {"type": "Feature", "properties": {"norad_id": 41382, "name": "EUTELSAT 65 WEST A", "group": "eutelsat", "lat": -0.06380080868082051, "lon": -130.69236246015652, "alt_km": 35776.69105046314, "timestamp": "2025-12-06T14:35:36.798818+00:00", "meta": {"OBJECT_NAME": "EUTELSAT 65 WEST A", "OBJECT_ID": "2016-014A", "EPOCH": "2025-12-06T06:30:23.218848", "MEAN_MOTION": 1.00269686, "ECCENTRICITY": 0.00028816, "INCLINATION": 0.049, "RA_OF_ASC_NODE": 353.9577, "ARG_OF_PERICENTER": 270.222, "MEAN_ANOMALY": 203.5224, "EPHEMERIS_TYPE": 0, "CLASSIFICATION_TYPE": "U", "NORAD_CAT_ID": 41382, "ELEMENT_SET_NO": 999, "REV_AT_EPOCH": 3560, "BSTAR": 0, "MEAN_MOTION_DOT": -2.68e-06, "MEAN_MOTION_DDOT": 0}, "tle": {"line1": "1 41382U 16014A   25340.27110207 -.00000268  00000+0  00000+0 0  9999", "line2": "2 41382   0.0490 353.9577 0002881 270.2220 203.5224  1.00269686 35606"}}, "geometry": {"type": "Point", "coordinates": [-130.69236246015652, -0.06380080868082051]}}, {"type": "Feature", "properties": {"norad_id": 41589, "name": "EUTELSAT 117 WEST B", "group": "eutelsat", "lat": 0.00762710813468218, "lon": 177.52252192909998, "alt_km": 35786.27812677297, "timestamp": "2025-12-06T14:35:36.798829+00:00", "meta": {"OBJECT_NAME": "EUTELSAT 117 WEST B", "OBJECT_ID": "2016-038B", "EPOCH": "2025-12-05T20:45:38.566944", "MEAN_MOTION": 1.00266552, "ECCENTRICITY": 3.952e-05, "INCLINATION": 0.0067, "RA_OF_ASC_NODE": 150.7186, "ARG_OF_PERICENTER": 345.3636, "MEAN_ANOMALY": 133.2375, "EPHEMERIS_TYPE": 0, "CLASSIFICATION_TYPE": "U", "NORAD_CAT_ID": 41589, "ELEMENT_SET_NO": 999, "REV_AT_EPOCH": 3472, "BSTAR": 0, "MEAN_MOTION_DOT": -1e-08, "MEAN_MOTION_DDOT": 0}, "tle": {"line1": "1 41589U 16038B   25339.86502971 -.00000001  00000+0  00000+0 0  9995", "line2": "2 41589   0.0067 150.7186 0000395 345.3636 133.2375  1.00266552 34724"}}, "geometry": {"type": "Point", "coordinates": [177.52252192909998, 0.00762710813468218]}}]}